CCSDS_OMM_VERS = 2.0
CREATION_DATE  = 
ORIGINATOR     = 

OBJECT_NAME    = KUIPER-00268
OBJECT_ID      = 2026-030AC
CENTER_NAME    = EARTH
REF_FRAME      = TEME
TIME_SYSTEM    = UTC
MEAN_ELEMENT_THEORY = SGP/SGP4

EPOCH          = 2026-03-05T22:01:50.721888
MEAN_MOTION    = 15.35842504
ECCENTRICITY   = .00025362
INCLINATION    = 51.8841
RA_OF_ASC_NODE = 237.2975
ARG_OF_PERICENTER = 37.4716
MEAN_ANOMALY   = 322.6446

EPHEMERIS_TYPE = 0
CLASSIFICATION_TYPE = U
NORAD_CAT_ID   = 67790
ELEMENT_SET_NO = 999
REV_AT_EPOCH   = 451
BSTAR          = .13004743E-2
MEAN_MOTION_DOT = .45953E-3
MEAN_MOTION_DDOT = 0

CCSDS_OMM_VERS = 2.0
CREATION_DATE  = 
ORIGINATOR     = 

OBJECT_NAME    = KUIPER-00270
OBJECT_ID      = 2026-030AD
CENTER_NAME    = EARTH
REF_FRAME      = TEME
TIME_SYSTEM    = UTC
MEAN_ELEMENT_THEORY = SGP/SGP4

EPOCH          = 2026-03-05T22:29:44.286432
MEAN_MOTION    = 15.34486989
ECCENTRICITY   = .00102132
INCLINATION    = 51.8814
RA_OF_ASC_NODE = 237.4126
ARG_OF_PERICENTER = 45.9042
MEAN_ANOMALY   = 314.2783

EPHEMERIS_TYPE = 0
CLASSIFICATION_TYPE = U
NORAD_CAT_ID   = 67791
ELEMENT_SET_NO = 999
REV_AT_EPOCH   = 451
BSTAR          = .7386519E-3
MEAN_MOTION_DOT = .24789E-3
MEAN_MOTION_DDOT = 0

CCSDS_OMM_VERS = 2.0
CREATION_DATE  = 
ORIGINATOR     = 

OBJECT_NAME    = KUIPER-00274
OBJECT_ID      = 2026-030AE
CENTER_NAME    = EARTH
REF_FRAME      = TEME
TIME_SYSTEM    = UTC
MEAN_ELEMENT_THEORY = SGP/SGP4

EPOCH          = 2026-03-05T21:35:04.442208
MEAN_MOTION    = 15.31053736
ECCENTRICITY   = .00159408
INCLINATION    = 51.8816
RA_OF_ASC_NODE = 237.9052
ARG_OF_PERICENTER = 63.7000
MEAN_ANOMALY   = 296.5619

EPHEMERIS_TYPE = 0
CLASSIFICATION_TYPE = U
NORAD_CAT_ID   = 67792
ELEMENT_SET_NO = 999
REV_AT_EPOCH   = 450
BSTAR          = -.12315336E-2
MEAN_MOTION_DOT = -.37828E-3
MEAN_MOTION_DDOT = 0

CCSDS_OMM_VERS = 2.0
CREATION_DATE  = 
ORIGINATOR     = 

OBJECT_NAME    = KUIPER-00275
OBJECT_ID      = 2026-030AF
CENTER_NAME    = EARTH
REF_FRAME      = TEME
TIME_SYSTEM    = UTC
MEAN_ELEMENT_THEORY = SGP/SGP4

EPOCH          = 2026-03-05T22:25:56.161056
MEAN_MOTION    = 15.34559702
ECCENTRICITY   = .00090107
INCLINATION    = 51.8846
RA_OF_ASC_NODE = 237.4047
ARG_OF_PERICENTER = 42.9278
MEAN_ANOMALY   = 317.2409

EPHEMERIS_TYPE = 0
CLASSIFICATION_TYPE = U
NORAD_CAT_ID   = 67793
ELEMENT_SET_NO = 999
REV_AT_EPOCH   = 451
BSTAR          = .71486523E-3
MEAN_MOTION_DOT = .24023E-3
MEAN_MOTION_DDOT = 0

CCSDS_OMM_VERS = 2.0
CREATION_DATE  = 
ORIGINATOR     = 

OBJECT_NAME    = KUIPER-00276
OBJECT_ID      = 2026-030AG
CENTER_NAME    = EARTH
REF_FRAME      = TEME
TIME_SYSTEM    = UTC
MEAN_ELEMENT_THEORY = SGP/SGP4

EPOCH          = 2026-03-05T21:40:39.779616
MEAN_MOTION    = 15.31286386
ECCENTRICITY   = .00188159
INCLINATION    = 51.8812
RA_OF_ASC_NODE = 237.9285
ARG_OF_PERICENTER = 56.7284
MEAN_ANOMALY   = 303.5500

EPHEMERIS_TYPE = 0
CLASSIFICATION_TYPE = U
NORAD_CAT_ID   = 67794
ELEMENT_SET_NO = 999
REV_AT_EPOCH   = 450
BSTAR          = -.65459657E-3
MEAN_MOTION_DOT = -.20507E-3
MEAN_MOTION_DDOT = 0

CCSDS_OMM_VERS = 2.0
CREATION_DATE  = 
ORIGINATOR     = 

OBJECT_NAME    = KUIPER-00279
OBJECT_ID      = 2026-030AH
CENTER_NAME    = EARTH
REF_FRAME      = TEME
TIME_SYSTEM    = UTC
MEAN_ELEMENT_THEORY = SGP/SGP4

EPOCH          = 2026-03-05T22:15:50.559264
MEAN_MOTION    = 15.35245594
ECCENTRICITY   = .00066243
INCLINATION    = 51.8804
RA_OF_ASC_NODE = 237.3499
ARG_OF_PERICENTER = 36.2433
MEAN_ANOMALY   = 323.9001

EPHEMERIS_TYPE = 0
CLASSIFICATION_TYPE = U
NORAD_CAT_ID   = 67795
ELEMENT_SET_NO = 999
REV_AT_EPOCH   = 451
BSTAR          = .89677404E-3
MEAN_MOTION_DOT = .3092E-3
MEAN_MOTION_DDOT = 0

CCSDS_OMM_VERS = 2.0
CREATION_DATE  = 
ORIGINATOR     = 

OBJECT_NAME    = CREW DRAGON 12
OBJECT_ID      = 2026-031A
CENTER_NAME    = EARTH
REF_FRAME      = TEME
TIME_SYSTEM    = UTC
MEAN_ELEMENT_THEORY = SGP/SGP4

EPOCH          = 2026-03-05T18:29:09.293280
MEAN_MOTION    = 15.48462755
ECCENTRICITY   = .00081443
INCLINATION    = 51.6317
RA_OF_ASC_NODE = 91.7338
ARG_OF_PERICENTER = 160.7168
MEAN_ANOMALY   = 199.4130

EPHEMERIS_TYPE = 0
CLASSIFICATION_TYPE = U
NORAD_CAT_ID   = 67796
ELEMENT_SET_NO = 999
REV_AT_EPOCH   = 55566
BSTAR          = .15012672E-3
MEAN_MOTION_DOT = .7682E-4
MEAN_MOTION_DDOT = 0

CCSDS_OMM_VERS = 2.0
CREATION_DATE  = 
ORIGINATOR     = 

OBJECT_NAME    = STARLINK-36800
OBJECT_ID      = 2026-032A
CENTER_NAME    = EARTH
REF_FRAME      = TEME
TIME_SYSTEM    = UTC
MEAN_ELEMENT_THEORY = SGP/SGP4

EPOCH          = 2026-03-05T22:41:22.433856
MEAN_MOTION    = 15.75266405
ECCENTRICITY   = .00011977
INCLINATION    = 97.2843
RA_OF_ASC_NODE = 251.2430
ARG_OF_PERICENTER = 82.9382
MEAN_ANOMALY   = 277.2019

EPHEMERIS_TYPE = 0
CLASSIFICATION_TYPE = U
NORAD_CAT_ID   = 67797
ELEMENT_SET_NO = 999
REV_AT_EPOCH   = 419
BSTAR          = .14896839E-2
MEAN_MOTION_DOT = .228879E-2
MEAN_MOTION_DDOT = 0

CCSDS_OMM_VERS = 2.0
CREATION_DATE  = 
ORIGINATOR     = 

OBJECT_NAME    = STARLINK-36798
OBJECT_ID      = 2026-032B
CENTER_NAME    = EARTH
REF_FRAME      = TEME
TIME_SYSTEM    = UTC
MEAN_ELEMENT_THEORY = SGP/SGP4

EPOCH          = 2026-03-05T22:00:01.999584
MEAN_MOTION    = 15.75208443
ECCENTRICITY   = .00016846
INCLINATION    = 97.2847
RA_OF_ASC_NODE = 251.2514
ARG_OF_PERICENTER = 83.9118
MEAN_ANOMALY   = 205.5102

EPHEMERIS_TYPE = 0
CLASSIFICATION_TYPE = U
NORAD_CAT_ID   = 67798
ELEMENT_SET_NO = 999
REV_AT_EPOCH   = 411
BSTAR          = -.37529362E-3
MEAN_MOTION_DOT = -.5579E-3
MEAN_MOTION_DDOT = 0

CCSDS_OMM_VERS = 2.0
CREATION_DATE  = 
ORIGINATOR     = 

OBJECT_NAME    = STARLINK-36804
OBJECT_ID      = 2026-032C
CENTER_NAME    = EARTH
REF_FRAME      = TEME
TIME_SYSTEM    = UTC
MEAN_ELEMENT_THEORY = SGP/SGP4

EPOCH          = 2026-03-05T22:38:50.123616
MEAN_MOTION    = 15.75271106
ECCENTRICITY   = .00013978
INCLINATION    = 97.2843
RA_OF_ASC_NODE = 251.2456
ARG_OF_PERICENTER = 78.9780
MEAN_ANOMALY   = 281.1643

EPHEMERIS_TYPE = 0
CLASSIFICATION_TYPE = U
NORAD_CAT_ID   = 67799
ELEMENT_SET_NO = 999
REV_AT_EPOCH   = 419
BSTAR          = .16729444E-2
MEAN_MOTION_DOT = .257991E-2
MEAN_MOTION_DDOT = 0

CCSDS_OMM_VERS = 2.0
CREATION_DATE  = 
ORIGINATOR     = 

OBJECT_NAME    = STARLINK-36354
OBJECT_ID      = 2026-032D
CENTER_NAME    = EARTH
REF_FRAME      = TEME
TIME_SYSTEM    = UTC
MEAN_ELEMENT_THEORY = SGP/SGP4

EPOCH          = 2026-03-05T22:00:01.999584
MEAN_MOTION    = 15.75173596
ECCENTRICITY   = .0001767
INCLINATION    = 97.2847
RA_OF_ASC_NODE = 251.2447
ARG_OF_PERICENTER = 91.3144
MEAN_ANOMALY   = 178.1208

EPHEMERIS_TYPE = 0
CLASSIFICATION_TYPE = U
NORAD_CAT_ID   = 67800
ELEMENT_SET_NO = 999
REV_AT_EPOCH   = 417
BSTAR          = .27514632E-4
MEAN_MOTION_DOT = .3973E-4
MEAN_MOTION_DDOT = 0

CCSDS_OMM_VERS = 2.0
CREATION_DATE  = 
ORIGINATOR     = 

OBJECT_NAME    = STARLINK-36773
OBJECT_ID      = 2026-032E
CENTER_NAME    = EARTH
REF_FRAME      = TEME
TIME_SYSTEM    = UTC
MEAN_ELEMENT_THEORY = SGP/SGP4

EPOCH          = 2026-03-05T22:34:15.547008
MEAN_MOTION    = 15.75254365
ECCENTRICITY   = .00015562
INCLINATION    = 97.2845
RA_OF_ASC_NODE = 251.2494
ARG_OF_PERICENTER = 48.2169
MEAN_ANOMALY   = 311.9229

EPHEMERIS_TYPE = 0
CLASSIFICATION_TYPE = U
NORAD_CAT_ID   = 67801
ELEMENT_SET_NO = 999
REV_AT_EPOCH   = 419
BSTAR          = .12616397E-2
MEAN_MOTION_DOT = .1929E-2
MEAN_MOTION_DDOT = 0

